ALOS-2                  
1 39766U 14029A   26094.28401351 -.00000060  00000+0 -11251-5 0  9994
2 39766  97.9196 192.5087 0001932  98.8901 261.2529 14.79450566640651
YAOGAN-29               
1 41038U 15069A   26094.97341760  .00001202  00000+0  15443-3 0  9999
2 41038  98.0100 123.4688 0000151 169.9466 190.1750 14.83027806559771
ASTRO-H (HITOMI)        
1 41337U 16012A   26094.94146210  .00003970  00000+0  23135-3 0  9991
2 41337  30.9987 187.1155 0009672 235.8746 124.0975 15.10181900556205
HXMT (HUIYAN)           
1 42758U 17034A   26094.84063969  .00009731  00000+0  47767-3 0  9990
2 42758  43.0141 231.2457 0030867  38.1772 322.1255 15.17823775486517
SAOCOM 1A               
1 43641U 18076A   26094.81958130  .00001432  00000+0  18641-3 0  9998
2 43641  97.8896 282.6237 0001476  86.6110 273.5272 14.82153107405231
H-2A R/B                
1 43682U 18084L   26094.88556735  .00022296  00000+0  51044-3 0  9999
2 43682  98.8682 317.8921 0023260 292.9823  66.8966 15.42544775409812
SAOCOM 1B               
1 46265U 20059A   26094.91834228  .00000614  00000+0  83728-4 0  9999
2 46265  97.8882 281.8176 0001427  83.0576 277.0799 14.82151036302639
CSS (TIANHE)            
1 48274U 21035A   26094.30151222  .00040275  00000+0  44965-3 0  9991
2 48274  41.4679  52.1686 0003749 122.2718 237.8485 15.62002278281610
COSMOS 2550             
1 48865U 21056A   26094.40472941  .00002815  00000+0  91326-4 0  9997
2 48865  67.1431 323.0974 0008430 269.6767  90.3422 15.33837300267403
CZ-2C R/B               
1 52794U 22058K   26094.27777953  .00056284  00000+0  75594-3 0  9999
2 52794  50.1866 186.4747 0041147 310.7638  48.9764 15.56303456214112
CZ-2C R/B               
1 54039U 22132E   26094.93955842  .00050326  00000+0  51975-3 0  9992
2 54039  97.2955  99.1025 0015695   2.6224 357.5115 15.64475351194471
GSLV R/B                
1 54149U 22138AN  26094.92668524  .00003919  00000+0  33682-3 0  9998
2 54149  87.3847 157.5772 0023610  60.4517 299.9064 14.96951501187850
