CCSDS_OMM_VERS = 2.0
CREATION_DATE  = 
ORIGINATOR     = 

OBJECT_NAME    = ALOS-2
OBJECT_ID      = 2014-029A
CENTER_NAME    = EARTH
REF_FRAME      = TEME
TIME_SYSTEM    = UTC
MEAN_ELEMENT_THEORY = SGP/SGP4

EPOCH          = 2026-04-04T06:48:58.767264
MEAN_MOTION    = 14.79450566
ECCENTRICITY   = .00019328
INCLINATION    = 97.9196
RA_OF_ASC_NODE = 192.5087
ARG_OF_PERICENTER = 98.8901
MEAN_ANOMALY   = 261.2529

EPHEMERIS_TYPE = 0
CLASSIFICATION_TYPE = U
NORAD_CAT_ID   = 39766
ELEMENT_SET_NO = 999
REV_AT_EPOCH   = 64065
BSTAR          = -.112507E-5
MEAN_MOTION_DOT = -.6E-6
MEAN_MOTION_DDOT = 0

CCSDS_OMM_VERS = 2.0
CREATION_DATE  = 
ORIGINATOR     = 

OBJECT_NAME    = YAOGAN-29
OBJECT_ID      = 2015-069A
CENTER_NAME    = EARTH
REF_FRAME      = TEME
TIME_SYSTEM    = UTC
MEAN_ELEMENT_THEORY = SGP/SGP4

EPOCH          = 2026-04-04T23:21:43.280640
MEAN_MOTION    = 14.83027806
ECCENTRICITY   = .00001514
INCLINATION    = 98.0100
RA_OF_ASC_NODE = 123.4688
ARG_OF_PERICENTER = 169.9466
MEAN_ANOMALY   = 190.1750

EPHEMERIS_TYPE = 0
CLASSIFICATION_TYPE = U
NORAD_CAT_ID   = 41038
ELEMENT_SET_NO = 999
REV_AT_EPOCH   = 55977
BSTAR          = .15443271E-3
MEAN_MOTION_DOT = .1202E-4
MEAN_MOTION_DDOT = 0

CCSDS_OMM_VERS = 2.0
CREATION_DATE  = 
ORIGINATOR     = 

OBJECT_NAME    = ASTRO-H (HITOMI)
OBJECT_ID      = 2016-012A
CENTER_NAME    = EARTH
REF_FRAME      = TEME
TIME_SYSTEM    = UTC
MEAN_ELEMENT_THEORY = SGP/SGP4

EPOCH          = 2026-04-04T22:35:42.325440
MEAN_MOTION    = 15.10181900
ECCENTRICITY   = .00096728
INCLINATION    = 30.9987
RA_OF_ASC_NODE = 187.1155
ARG_OF_PERICENTER = 235.8746
MEAN_ANOMALY   = 124.0975

EPHEMERIS_TYPE = 0
CLASSIFICATION_TYPE = U
NORAD_CAT_ID   = 41337
ELEMENT_SET_NO = 999
REV_AT_EPOCH   = 55620
BSTAR          = .23134911E-3
MEAN_MOTION_DOT = .397E-4
MEAN_MOTION_DDOT = 0

CCSDS_OMM_VERS = 2.0
CREATION_DATE  = 
ORIGINATOR     = 

OBJECT_NAME    = HXMT (HUIYAN)
OBJECT_ID      = 2017-034A
CENTER_NAME    = EARTH
REF_FRAME      = TEME
TIME_SYSTEM    = UTC
MEAN_ELEMENT_THEORY = SGP/SGP4

EPOCH          = 2026-04-04T20:10:31.269216
MEAN_MOTION    = 15.17823775
ECCENTRICITY   = .00308679
INCLINATION    = 43.0141
RA_OF_ASC_NODE = 231.2457
ARG_OF_PERICENTER = 38.1772
MEAN_ANOMALY   = 322.1255

EPHEMERIS_TYPE = 0
CLASSIFICATION_TYPE = U
NORAD_CAT_ID   = 42758
ELEMENT_SET_NO = 999
REV_AT_EPOCH   = 48651
BSTAR          = .47767087E-3
MEAN_MOTION_DOT = .9731E-4
MEAN_MOTION_DDOT = 0

CCSDS_OMM_VERS = 2.0
CREATION_DATE  = 
ORIGINATOR     = 

OBJECT_NAME    = SAOCOM 1A
OBJECT_ID      = 2018-076A
CENTER_NAME    = EARTH
REF_FRAME      = TEME
TIME_SYSTEM    = UTC
MEAN_ELEMENT_THEORY = SGP/SGP4

EPOCH          = 2026-04-04T19:40:11.824320
MEAN_MOTION    = 14.82153107
ECCENTRICITY   = .00014768
INCLINATION    = 97.8896
RA_OF_ASC_NODE = 282.6237
ARG_OF_PERICENTER = 86.6110
MEAN_ANOMALY   = 273.5272

EPHEMERIS_TYPE = 0
CLASSIFICATION_TYPE = U
NORAD_CAT_ID   = 43641
ELEMENT_SET_NO = 999
REV_AT_EPOCH   = 40523
BSTAR          = .18640936E-3
MEAN_MOTION_DOT = .1432E-4
MEAN_MOTION_DDOT = 0

CCSDS_OMM_VERS = 2.0
CREATION_DATE  = 
ORIGINATOR     = 

OBJECT_NAME    = H-2A R/B
OBJECT_ID      = 2018-084L
CENTER_NAME    = EARTH
REF_FRAME      = TEME
TIME_SYSTEM    = UTC
MEAN_ELEMENT_THEORY = SGP/SGP4

EPOCH          = 2026-04-04T21:15:13.019040
MEAN_MOTION    = 15.42544775
ECCENTRICITY   = .00232601
INCLINATION    = 98.8682
RA_OF_ASC_NODE = 317.8921
ARG_OF_PERICENTER = 292.9823
MEAN_ANOMALY   = 66.8966

EPHEMERIS_TYPE = 0
CLASSIFICATION_TYPE = U
NORAD_CAT_ID   = 43682
ELEMENT_SET_NO = 999
REV_AT_EPOCH   = 40981
BSTAR          = .51043512E-3
MEAN_MOTION_DOT = .22296E-3
MEAN_MOTION_DDOT = 0

CCSDS_OMM_VERS = 2.0
CREATION_DATE  = 
ORIGINATOR     = 

OBJECT_NAME    = SAOCOM 1B
OBJECT_ID      = 2020-059A
CENTER_NAME    = EARTH
REF_FRAME      = TEME
TIME_SYSTEM    = UTC
MEAN_ELEMENT_THEORY = SGP/SGP4

EPOCH          = 2026-04-04T22:02:24.772992
MEAN_MOTION    = 14.82151036
ECCENTRICITY   = .00014272
INCLINATION    = 97.8882
RA_OF_ASC_NODE = 281.8176
ARG_OF_PERICENTER = 83.0576
MEAN_ANOMALY   = 277.0799

EPHEMERIS_TYPE = 0
CLASSIFICATION_TYPE = U
NORAD_CAT_ID   = 46265
ELEMENT_SET_NO = 999
REV_AT_EPOCH   = 30263
BSTAR          = .83728318E-4
MEAN_MOTION_DOT = .614E-5
MEAN_MOTION_DDOT = 0

CCSDS_OMM_VERS = 2.0
CREATION_DATE  = 
ORIGINATOR     = 

OBJECT_NAME    = CSS (TIANHE)
OBJECT_ID      = 2021-035A
CENTER_NAME    = EARTH
REF_FRAME      = TEME
TIME_SYSTEM    = UTC
MEAN_ELEMENT_THEORY = SGP/SGP4

EPOCH          = 2026-04-04T07:14:10.655808
MEAN_MOTION    = 15.62002278
ECCENTRICITY   = .0003749
INCLINATION    = 41.4679
RA_OF_ASC_NODE = 52.1686
ARG_OF_PERICENTER = 122.2718
MEAN_ANOMALY   = 237.8485

EPHEMERIS_TYPE = 0
CLASSIFICATION_TYPE = U
NORAD_CAT_ID   = 48274
ELEMENT_SET_NO = 999
REV_AT_EPOCH   = 28161
BSTAR          = .44965E-3
MEAN_MOTION_DOT = .40275E-3
MEAN_MOTION_DDOT = 0

CCSDS_OMM_VERS = 2.0
CREATION_DATE  = 
ORIGINATOR     = 

OBJECT_NAME    = COSMOS 2550
OBJECT_ID      = 2021-056A
CENTER_NAME    = EARTH
REF_FRAME      = TEME
TIME_SYSTEM    = UTC
MEAN_ELEMENT_THEORY = SGP/SGP4

EPOCH          = 2026-04-04T09:42:48.621024
MEAN_MOTION    = 15.33837300
ECCENTRICITY   = .00084309
INCLINATION    = 67.1431
RA_OF_ASC_NODE = 323.0974
ARG_OF_PERICENTER = 269.6767
MEAN_ANOMALY   = 90.3422

EPHEMERIS_TYPE = 0
CLASSIFICATION_TYPE = U
NORAD_CAT_ID   = 48865
ELEMENT_SET_NO = 999
REV_AT_EPOCH   = 26740
BSTAR          = .91325794E-4
MEAN_MOTION_DOT = .2815E-4
MEAN_MOTION_DDOT = 0

CCSDS_OMM_VERS = 2.0
CREATION_DATE  = 
ORIGINATOR     = 

OBJECT_NAME    = CZ-2C R/B
OBJECT_ID      = 2022-058K
CENTER_NAME    = EARTH
REF_FRAME      = TEME
TIME_SYSTEM    = UTC
MEAN_ELEMENT_THEORY = SGP/SGP4

EPOCH          = 2026-04-04T06:40:00.151392
MEAN_MOTION    = 15.56303456
ECCENTRICITY   = .00411476
INCLINATION    = 50.1866
RA_OF_ASC_NODE = 186.4747
ARG_OF_PERICENTER = 310.7638
MEAN_ANOMALY   = 48.9764

EPHEMERIS_TYPE = 0
CLASSIFICATION_TYPE = U
NORAD_CAT_ID   = 52794
ELEMENT_SET_NO = 999
REV_AT_EPOCH   = 21411
BSTAR          = .75594387E-3
MEAN_MOTION_DOT = .56284E-3
MEAN_MOTION_DDOT = 0

CCSDS_OMM_VERS = 2.0
CREATION_DATE  = 
ORIGINATOR     = 

OBJECT_NAME    = CZ-2C R/B
OBJECT_ID      = 2022-132E
CENTER_NAME    = EARTH
REF_FRAME      = TEME
TIME_SYSTEM    = UTC
MEAN_ELEMENT_THEORY = SGP/SGP4

EPOCH          = 2026-04-04T22:32:57.847488
MEAN_MOTION    = 15.64475351
ECCENTRICITY   = .00156959
INCLINATION    = 97.2955
RA_OF_ASC_NODE = 99.1025
ARG_OF_PERICENTER = 2.6224
MEAN_ANOMALY   = 357.5115

EPHEMERIS_TYPE = 0
CLASSIFICATION_TYPE = U
NORAD_CAT_ID   = 54039
ELEMENT_SET_NO = 999
REV_AT_EPOCH   = 19447
BSTAR          = .51974611E-3
MEAN_MOTION_DOT = .50326E-3
MEAN_MOTION_DDOT = 0

CCSDS_OMM_VERS = 2.0
CREATION_DATE  = 
ORIGINATOR     = 

OBJECT_NAME    = GSLV R/B
OBJECT_ID      = 2022-138AN
CENTER_NAME    = EARTH
REF_FRAME      = TEME
TIME_SYSTEM    = UTC
MEAN_ELEMENT_THEORY = SGP/SGP4

EPOCH          = 2026-04-04T22:14:25.604736
MEAN_MOTION    = 14.96951501
ECCENTRICITY   = .00236109
INCLINATION    = 87.3847
RA_OF_ASC_NODE = 157.5772
ARG_OF_PERICENTER = 60.4517
MEAN_ANOMALY   = 299.9064

EPHEMERIS_TYPE = 0
CLASSIFICATION_TYPE = U
NORAD_CAT_ID   = 54149
ELEMENT_SET_NO = 999
REV_AT_EPOCH   = 18785
BSTAR          = .33682003E-3
MEAN_MOTION_DOT = .3919E-4
MEAN_MOTION_DDOT = 0

